start=new Date('2021-12-29T00:00:00.000Z').valueOf();
sats=[{"INCLINATION":"53.0475","EPOCH":"2021-12-28T15:05:39.898464","OBJECT_NAME":"STARLINK-1952","TIME_SYSTEM":"UTC","TLE_LINE2":"2 47349  53.0475  48.1818 0005221  14.7642 345.3529 15.76755990 52841","SEMIMAJOR_AXIS":"6717.776","NORAD_CAT_ID":"47349","RCS_SIZE":"LARGE","RA_OF_ASC_NODE":"48.1818","TLE_LINE1":"1 47349U 21005A   21362.62893401  .00012808  00000-0  82005-4 0  9990","PERIAPSIS":"336.134","LAUNCH_DATE":"2021-01-20","MEAN_MOTION_DOT":"0.00012808","PERIOD":"91.327","OBJECT_TYPE":"PAYLOAD","REF_FRAME":"TEME","MEAN_ANOMALY":"345.3529","REV_AT_EPOCH":"5284","OBJECT_ID":"2021-005A","MEAN_MOTION":"15.76755990","ECCENTRICITY":"0.00052210","BSTAR":"0.00008200500000","MEAN_ELEMENT_THEORY":"SGP4","GP_ID":"192675344","ELEMENT_SET_NO":"999","CLASSIFICATION_TYPE":"U","ARG_OF_PERICENTER":"14.7642","EPHEMERIS_TYPE":"0","CENTER_NAME":"EARTH","APOAPSIS":"343.148","DECAY_DATE":null,"MEAN_MOTION_DDOT":"0.0000000000000","SITE":"AFETR","FILE":"3254265","COUNTRY_CODE":"US"},{"DECAY_DATE":null,"MEAN_MOTION_DDOT":"0.0000000000000","FILE":"3254265","SITE":"AFETR","COUNTRY_CODE":"US","ECCENTRICITY":"0.00012590","MEAN_MOTION":"15.06395574","OBJECT_ID":"2021-005B","BSTAR":"0.00012305000000","MEAN_ELEMENT_THEORY":"SGP4","GP_ID":"192674593","CLASSIFICATION_TYPE":"U","ARG_OF_PERICENTER":"89.8071","ELEMENT_SET_NO":"999","APOAPSIS":"548.099","CENTER_NAME":"EARTH","EPHEMERIS_TYPE":"0","LAUNCH_DATE":"2021-01-20","PERIAPSIS":"546.355","PERIOD":"95.592","MEAN_MOTION_DOT":"0.00001552","REF_FRAME":"TEME","OBJECT_TYPE":"PAYLOAD","MEAN_ANOMALY":"270.3062","REV_AT_EPOCH":"5212","INCLINATION":"53.0486","EPOCH":"2021-12-28T14:27:22.976928","OBJECT_NAME":"STARLINK-2011","TIME_SYSTEM":"UTC","NORAD_CAT_ID":"47350","TLE_LINE2":"2 47350  53.0486  99.4387 0001259  89.8071 270.3062 15.06395574 52122","SEMIMAJOR_AXIS":"6925.362","RA_OF_ASC_NODE":"99.4387","TLE_LINE1":"1 47350U 21005B   21362.60234927  .00001552  00000-0  12305-3 0  9991","RCS_SIZE":"LARGE"},{"REF_FRAME":"TEME","OBJECT_TYPE":"PAYLOAD","LAUNCH_DATE":"2021-01-20","PERIAPSIS":"546.261","PERIOD":"95.592","MEAN_MOTION_DOT":"0.00001258","REV_AT_EPOCH":"5268","MEAN_ANOMALY":"268.4449","EPOCH":"2021-12-28T15:09:50.953536","INCLINATION":"53.0543","RA_OF_ASC_NODE":"59.2833","TLE_LINE1":"1 47351U 21005C   21362.63183974  .00001258  00000-0  10335-3 0  9994","RCS_SIZE":"LARGE","OBJECT_NAME":"STARLINK-2017","TIME_SYSTEM":"UTC","TLE_LINE2":"2 47351  53.0543  59.2833 0001388  91.6699 268.4449 15.06397144 52680","SEMIMAJOR_AXIS":"6925.357","NORAD_CAT_ID":"47351","DECAY_DATE":null,"MEAN_MOTION_DDOT":"0.0000000000000","COUNTRY_CODE":"US","FILE":"3254265","SITE":"AFETR","BSTAR":"0.00010335000000","MEAN_ELEMENT_THEORY":"SGP4","ECCENTRICITY":"0.00013880","MEAN_MOTION":"15.06397144","OBJECT_ID":"2021-005C","APOAPSIS":"548.184","CENTER_NAME":"EARTH","EPHEMERIS_TYPE":"0","GP_ID":"192674342","CLASSIFICATION_TYPE":"U","ARG_OF_PERICENTER":"91.6699","ELEMENT_SET_NO":"999"},{"MEAN_ANOMALY":"276.5471","REV_AT_EPOCH":"5214","PERIAPSIS":"546.425","LAUNCH_DATE":"2021-01-20","PERIOD":"95.592","MEAN_MOTION_DOT":"0.00000859","REF_FRAME":"TEME","OBJECT_TYPE":"PAYLOAD","OBJECT_NAME":"STARLINK-2034","TIME_SYSTEM":"UTC","NORAD_CAT_ID":"47352","TLE_LINE2":"2 47352  53.0547  98.6129 0001154  83.5649 276.5471 15.06396584 52149","SEMIMAJOR_AXIS":"6925.359","RA_OF_ASC_NODE":"98.6129","TLE_LINE1":"1 47352U 21005D   21362.78296121  .00000859  00000-0  76522-4 0  9997","RCS_SIZE":"LARGE","INCLINATION":"53.0547","EPOCH":"2021-12-28T18:47:27.848544","SITE":"AFETR","FILE":"3254265","COUNTRY_CODE":"US","DECAY_DATE":null,"MEAN_MOTION_DDOT":"0.0000000000000","GP_ID":"192675094","CLASSIFICATION_TYPE":"U","ARG_OF_PERICENTER":"83.5649","ELEMENT_SET_NO":"999","CENTER_NAME":"EARTH","APOAPSIS":"548.023","EPHEMERIS_TYPE":"0","ECCENTRICITY":"0.00011540","OBJECT_ID":"2021-005D","MEAN_MOTION":"15.06396584","BSTAR":"0.00007652200000","MEAN_ELEMENT_THEORY":"SGP4"},{"INCLINATION":"53.0566","EPOCH":"2021-12-28T14:32:01.616928","TIME_SYSTEM":"UTC","OBJECT_NAME":"STARLINK-2045","TLE_LINE2":"2 47353  53.0566  44.4031 0001370  67.1960 292.9174 15.06390043 52894","SEMIMAJOR_AXIS":"6925.379","NORAD_CAT_ID":"47353","TLE_LINE1":"1 47353U 21005E   21362.60557427  .00001586  00000-0  12539-3 0  9993","RA_OF_ASC_NODE":"44.4031","RCS_SIZE":"LARGE","LAUNCH_DATE":"2021-01-20","PERIAPSIS":"546.295","PERIOD":"95.593","MEAN_MOTION_DOT":"0.00001586","REF_FRAME":"TEME","OBJECT_TYPE":"PAYLOAD","MEAN_ANOMALY":"292.9174","REV_AT_EPOCH":"5289","ECCENTRICITY":"0.00013700","MEAN_MOTION":"15.06390043","OBJECT_ID":"2021-005E","BSTAR":"0.00012539000000","MEAN_ELEMENT_THEORY":"SGP4","GP_ID":"192675845","ARG_OF_PERICENTER":"67.1960","CLASSIFICATION_TYPE":"U","ELEMENT_SET_NO":"999","CENTER_NAME":"EARTH","APOAPSIS":"548.193","EPHEMERIS_TYPE":"0","DECAY_DATE":null,"MEAN_MOTION_DDOT":"0.0000000000000","SITE":"AFETR","FILE":"3254265","COUNTRY_CODE":"US"},{"RA_OF_ASC_NODE":"64.9612","TLE_LINE1":"1 47354U 21005F   21362.48577969  .00000341  00000-0  41792-4 0  9995","RCS_SIZE":"LARGE","SEMIMAJOR_AXIS":"6925.336","TLE_LINE2":"2 47354  53.0562  64.9612 0001356  99.4947 260.6195 15.06404240 52597","NORAD_CAT_ID":"47354","TIME_SYSTEM":"UTC","OBJECT_NAME":"STARLINK-2046","EPOCH":"2021-12-28T11:39:31.365216","INCLINATION":"53.0562","REV_AT_EPOCH":"5259","MEAN_ANOMALY":"260.6195","REF_FRAME":"TEME","OBJECT_TYPE":"PAYLOAD","PERIOD":"95.592","MEAN_MOTION_DOT":"0.00000341","PERIAPSIS":"546.261","LAUNCH_DATE":"2021-01-20","APOAPSIS":"548.140","CENTER_NAME":"EARTH","EPHEMERIS_TYPE":"0","ARG_OF_PERICENTER":"99.4947","CLASSIFICATION_TYPE":"U","ELEMENT_SET_NO":"999","GP_ID":"192640332","BSTAR":"0.00004179200000","MEAN_ELEMENT_THEORY":"SGP4","ECCENTRICITY":"0.00013560","OBJECT_ID":"2021-005F","MEAN_MOTION":"15.06404240","COUNTRY_CODE":"US","FILE":"3253660","SITE":"AFETR","MEAN_MOTION_DDOT":"0.0000000000000","DECAY_DATE":null},{"MEAN_MOTION_DDOT":"0.0000000000000","DECAY_DATE":null,"COUNTRY_CODE":"US","FILE":"3254265","SITE":"AFETR","BSTAR":"0.00029472000000","MEAN_ELEMENT_THEORY":"SGP4","OBJECT_ID":"2021-005G","MEAN_MOTION":"15.06408061","ECCENTRICITY":"0.00016410","EPHEMERIS_TYPE":"0","CENTER_NAME":"EARTH","APOAPSIS":"548.325","ELEMENT_SET_NO":"999","ARG_OF_PERICENTER":"57.4973","CLASSIFICATION_TYPE":"U","GP_ID":"192674843","OBJECT_TYPE":"PAYLOAD","REF_FRAME":"TEME","MEAN_MOTION_DOT":"0.00004112","PERIOD":"95.592","PERIAPSIS":"546.052","LAUNCH_DATE":"2021-01-20","REV_AT_EPOCH":"5282","MEAN_ANOMALY":"302.6174","EPOCH":"2021-12-28T15:21:46.962432","INCLINATION":"53.0475","RCS_SIZE":"LARGE","TLE_LINE1":"1 47355U 21005G   21362.64012688  .00004112  00000-0  29472-3 0  9996","RA_OF_ASC_NODE":"49.4020","NORAD_CAT_ID":"47355","TLE_LINE2":"2 47355  53.0475  49.4020 0001641  57.4973 302.6174 15.06408061 52827","SEMIMAJOR_AXIS":"6925.324","OBJECT_NAME":"STARLINK-2047","TIME_SYSTEM":"UTC"},{"RCS_SIZE":"LARGE","TLE_LINE1":"1 47356U 21005H   21362.61985854  .00011591  00000-0  79556-3 0  9995","RA_OF_ASC_NODE":"69.3556","SEMIMAJOR_AXIS":"6925.320","TLE_LINE2":"2 47356  53.0554  69.3556 0001392  84.9570 275.1578 15.06409410 52542","NORAD_CAT_ID":"47356","TIME_SYSTEM":"UTC","OBJECT_NAME":"STARLINK-2049","EPOCH":"2021-12-28T14:52:35.777856","INCLINATION":"53.0554","REV_AT_EPOCH":"5254","MEAN_ANOMALY":"275.1578","OBJECT_TYPE":"PAYLOAD","REF_FRAME":"TEME","MEAN_MOTION_DOT":"0.00011591","PERIOD":"95.592","LAUNCH_DATE":"2021-01-20","PERIAPSIS":"546.221","EPHEMERIS_TYPE":"0","APOAPSIS":"548.149","CENTER_NAME":"EARTH","ELEMENT_SET_NO":"999","ARG_OF_PERICENTER":"84.9570","CLASSIFICATION_TYPE":"U","GP_ID":"192675595","BSTAR":"0.00079556000000","MEAN_ELEMENT_THEORY":"SGP4","OBJECT_ID":"2021-005H","MEAN_MOTION":"15.06409410","ECCENTRICITY":"0.00013920","COUNTRY_CODE":"US","FILE":"3254265","SITE":"AFETR","MEAN_MOTION_DDOT":"0.0000000000000","DECAY_DATE":null},{"REF_FRAME":"TEME","OBJECT_TYPE":"PAYLOAD","PERIOD":"95.592","MEAN_MOTION_DOT":"0.00000852","PERIAPSIS":"546.356","LAUNCH_DATE":"2021-01-20","REV_AT_EPOCH":"5214","MEAN_ANOMALY":"271.6839","EPOCH":"2021-12-28T18:15:36.715968","INCLINATION":"53.0530","RA_OF_ASC_NODE":"98.7157","TLE_LINE1":"1 47357U 21005J   21362.76084162  .00000852  00000-0  76122-4 0  9999","RCS_SIZE":"LARGE","SEMIMAJOR_AXIS":"6925.365","TLE_LINE2":"2 47357  53.0530  98.7157 0001261  88.4294 271.6839 15.06394769 52144","NORAD_CAT_ID":"47357","TIME_SYSTEM":"UTC","OBJECT_NAME":"STARLINK-2050","MEAN_MOTION_DDOT":"0.0000000000000","DECAY_DATE":null,"COUNTRY_CODE":"US","FILE":"3254265","SITE":"AFETR","BSTAR":"0.00007612200000","MEAN_ELEMENT_THEORY":"SGP4","ECCENTRICITY":"0.00012610","MEAN_MOTION":"15.06394769","OBJECT_ID":"2021-005J","CENTER_NAME":"EARTH","APOAPSIS":"548.103","EPHEMERIS_TYPE":"0","ARG_OF_PERICENTER":"88.4294","CLASSIFICATION_TYPE":"U","ELEMENT_SET_NO":"999","GP_ID":"192675345"},{"GP_ID":"192674594","ELEMENT_SET_NO":"999","CLASSIFICATION_TYPE":"U","ARG_OF_PERICENTER":"91.7431","EPHEMERIS_TYPE":"0","APOAPSIS":"548.133","CENTER_NAME":"EARTH","MEAN_MOTION":"15.06398668","OBJECT_ID":"2021-005K","ECCENTRICITY":"0.00013220","BSTAR":"0.00026250000000","MEAN_ELEMENT_THEORY":"SGP4","SITE":"AFETR","FILE":"3254265","COUNTRY_CODE":"US","DECAY_DATE":null,"MEAN_MOTION_DDOT":"0.0000000000000","TIME_SYSTEM":"UTC","OBJECT_NAME":"STARLINK-2055","TLE_LINE2":"2 47358  53.0551  69.5942 0001322  91.7431 268.3710 15.06398668 52530","NORAD_CAT_ID":"47358","SEMIMAJOR_AXIS":"6925.353","RCS_SIZE":"LARGE","RA_OF_ASC_NODE":"69.5942","TLE_LINE1":"1 47358U 21005K   21362.56456450  .00003630  00000-0  26250-3 0  9994","INCLINATION":"53.0551","EPOCH":"2021-12-28T13:32:58.372800","MEAN_ANOMALY":"268.3710","REV_AT_EPOCH":"5253","PERIAPSIS":"546.302","LAUNCH_DATE":"2021-01-20","MEAN_MOTION_DOT":"0.00003630","PERIOD":"95.592","OBJECT_TYPE":"PAYLOAD","REF_FRAME":"TEME"}];
